{
    "links": {
        "self": "http://www.neowsapp.com/rest/v1/neo/54049784?api_key=iIulBulltgU6a56xZRHN4H3l9WmuAYTsLGpBGhQ2"
    },
    "id": "54049784",
    "neo_reference_id": "54049784",
    "name": "(2020 ON4)",
    "designation": "2020 ON4",
    "nasa_jpl_url": "http://ssd.jpl.nasa.gov/sbdb.cgi?sstr=54049784",
    "absolute_magnitude_h": 24.427,
    "estimated_diameter": {
        "kilometers": {
            "estimated_diameter_min": 0.0346062847,
            "estimated_diameter_max": 0.0773820051
        },
        "meters": {
            "estimated_diameter_min": 34.6062847223,
            "estimated_diameter_max": 77.3820050878
        },
        "miles": {
            "estimated_diameter_min": 0.0215033417,
            "estimated_diameter_max": 0.0480829339
        },
        "feet": {
            "estimated_diameter_min": 113.5376831683,
            "estimated_diameter_max": 253.8779775722
        }
    },
    "is_potentially_hazardous_asteroid": false,
    "close_approach_data": [
        {
            "close_approach_date": "2020-06-21",
            "close_approach_date_full": "2020-Jun-21 15:40",
            "epoch_date_close_approach": 1592754000000,
            "relative_velocity": {
                "kilometers_per_second": "5.3464103362",
                "kilometers_per_hour": "19247.0772102985",
                "miles_per_hour": "11959.3852810324"
            },
            "miss_distance": {
                "astronomical": "0.09519339",
                "lunar": "37.03022871",
                "kilometers": "14240728.3820793",
                "miles": "8848778.29332234"
            },
            "orbiting_body": "Earth"
        },
        {
            "close_approach_date": "2188-05-21",
            "close_approach_date_full": "2188-May-21 21:17",
            "epoch_date_close_approach": 6891686220000,
            "relative_velocity": {
                "kilometers_per_second": "14.1187335259",
                "kilometers_per_hour": "50827.4406933725",
                "miles_per_hour": "31582.195024168"
            },
            "miss_distance": {
                "astronomical": "0.3567102266",
                "lunar": "138.7602781474",
                "kilometers": "53363090.106577342",
                "miles": "33158286.6220456396"
            },
            "orbiting_body": "Earth"
        },
        {
            "close_approach_date": "2191-08-05",
            "close_approach_date_full": "2191-Aug-05 19:42",
            "epoch_date_close_approach": 6992854920000,
            "relative_velocity": {
                "kilometers_per_second": "14.8749334826",
                "kilometers_per_hour": "53549.7605373024",
                "miles_per_hour": "33273.7387071921"
            },
            "miss_distance": {
                "astronomical": "0.3707767977",
                "lunar": "144.2321743053",
                "kilometers": "55467419.181340899",
                "miles": "34465856.0763024462"
            },
            "orbiting_body": "Earth"
        },
        {
            "close_approach_date": "2191-09-29",
            "close_approach_date_full": "2191-Sep-29 12:50",
            "epoch_date_close_approach": 6997582200000,
            "relative_velocity": {
                "kilometers_per_second": "8.801463446",
                "kilometers_per_hour": "31685.2684055849",
                "miles_per_hour": "19687.993582348"
            },
            "miss_distance": {
                "astronomical": "0.0984652944",
                "lunar": "38.3029995216",
                "kilometers": "14730198.311162928",
                "miles": "9152920.8039792864"
            },
            "orbiting_body": "Mars"
        }
    ],
    "orbital_data": {
        "orbit_id": "2",
        "orbit_determination_date": "2020-08-22 06:35:08",
        "first_observation_date": "2020-07-23",
        "last_observation_date": "2020-08-19",
        "data_arc_in_days": 27,
        "observations_used": 18,
        "orbit_uncertainty": "7",
        "minimum_orbit_intersection": ".094612",
        "jupiter_tisserand_invariant": "3.562",
        "epoch_osculation": "2459000.5",
        "eccentricity": ".4843391749205861",
        "semi_major_axis": "2.129412212624763",
        "inclination": "2.624577721187364",
        "ascending_node_longitude": "351.1017925056902",
        "orbital_period": "1134.979552945031",
        "perihelion_distance": "1.098054458496266",
        "perihelion_argument": "280.4252308303119",
        "aphelion_distance": "3.160769966753261",
        "perihelion_time": "2459022.663052930607",
        "mean_anomaly": "352.97018256028",
        "mean_motion": ".3171863308602136",
        "equinox": "J2000",
        "orbit_class": {
            "orbit_class_type": "AMO",
            "orbit_class_description": "Near-Earth asteroid orbits similar to that of 1221 Amor",
            "orbit_class_range": "1.017 AU < q (perihelion) < 1.3 AU"
        }
    },
    "is_sentry_object": false
}